start=new Date('2023-01-09T00:00:00.000Z').valueOf();
sats=[{"MEAN_ANOMALY":"320.3158","EPHEMERIS_TYPE":"0","ELEMENT_SET_NO":"999","OBJECT_ID":"2022-049AW","TLE_LINE1":"1 52495U 22049AW  23008.80242688  .00001203  00000-0  93705-4 0  9997","REV_AT_EPOCH":"3789","INCLINATION":"53.2125","EPOCH":"2023-01-08T19:15:29.682432","CLASSIFICATION_TYPE":"U","MEAN_ELEMENT_THEORY":"SGP4","DECAY_DATE":null,"SEMIMAJOR_AXIS":"6917.884","RCS_SIZE":"LARGE","RA_OF_ASC_NODE":"198.1087","CENTER_NAME":"EARTH","MEAN_MOTION_DDOT":"0.0000000000000","GP_ID":"222498433","OBJECT_NAME":"STARLINK-3905","FILE":"3736460","BSTAR":"0.00009370500000","ECCENTRICITY":"0.00026040","PERIOD":"95.438","LAUNCH_DATE":"2022-05-06","TLE_LINE2":"2 52495  53.2125 198.1087 0002604  39.8025 320.3158 15.08838900 37899","REF_FRAME":"TEME","TIME_SYSTEM":"UTC","PERIAPSIS":"537.947","COUNTRY_CODE":"US","MEAN_MOTION":"15.08838900","SITE":"AFETR","ARG_OF_PERICENTER":"39.8025","OBJECT_TYPE":"PAYLOAD","MEAN_MOTION_DOT":"0.00001203","NORAD_CAT_ID":"52495","APOAPSIS":"541.550"},{"PERIOD":"95.438","ECCENTRICITY":"0.00030640","TLE_LINE2":"2 52496  53.2158 193.8864 0003064  40.2217 319.9001 15.08834871 37930","LAUNCH_DATE":"2022-05-06","GP_ID":"222498683","FILE":"3736460","OBJECT_NAME":"STARLINK-3871","BSTAR":"0.00007068900000","RA_OF_ASC_NODE":"193.8864","RCS_SIZE":"LARGE","MEAN_MOTION_DDOT":"0.0000000000000","CENTER_NAME":"EARTH","SEMIMAJOR_AXIS":"6917.896","DECAY_DATE":null,"CLASSIFICATION_TYPE":"U","MEAN_ELEMENT_THEORY":"SGP4","EPOCH":"2023-01-08T14:59:08.934144","REV_AT_EPOCH":"3793","INCLINATION":"53.2158","TLE_LINE1":"1 52496U 22049AX  23008.62440896  .00000836  00000-0  70689-4 0  9996","ELEMENT_SET_NO":"999","OBJECT_ID":"2022-049AX","EPHEMERIS_TYPE":"0","MEAN_ANOMALY":"319.9001","NORAD_CAT_ID":"52496","APOAPSIS":"541.881","ARG_OF_PERICENTER":"40.2217","OBJECT_TYPE":"PAYLOAD","MEAN_MOTION_DOT":"0.00000836","SITE":"AFETR","MEAN_MOTION":"15.08834871","COUNTRY_CODE":"US","TIME_SYSTEM":"UTC","PERIAPSIS":"537.641","REF_FRAME":"TEME"},{"REF_FRAME":"TEME","PERIAPSIS":"537.298","TIME_SYSTEM":"UTC","COUNTRY_CODE":"US","MEAN_MOTION":"15.08839212","SITE":"AFETR","MEAN_MOTION_DOT":"0.00002182","OBJECT_TYPE":"PAYLOAD","ARG_OF_PERICENTER":"36.0515","APOAPSIS":"542.197","NORAD_CAT_ID":"52497","MEAN_ANOMALY":"324.0715","EPHEMERIS_TYPE":"0","ELEMENT_SET_NO":"999","OBJECT_ID":"2022-049AY","TLE_LINE1":"1 52497U 22049AY  23008.79506904  .00002182  00000-0  15518-3 0  9993","INCLINATION":"53.2155","REV_AT_EPOCH":"3789","EPOCH":"2023-01-08T19:04:53.965056","CLASSIFICATION_TYPE":"U","MEAN_ELEMENT_THEORY":"SGP4","DECAY_DATE":null,"SEMIMAJOR_AXIS":"6917.883","MEAN_MOTION_DDOT":"0.0000000000000","CENTER_NAME":"EARTH","RA_OF_ASC_NODE":"198.1471","RCS_SIZE":"LARGE","BSTAR":"0.00015518000000","OBJECT_NAME":"STARLINK-3884","GP_ID":"222499934","FILE":"3736460","TLE_LINE2":"2 52497  53.2155 198.1471 0003541  36.0515 324.0715 15.08839212 37892","LAUNCH_DATE":"2022-05-06","PERIOD":"95.438","ECCENTRICITY":"0.00035410"},{"MEAN_MOTION":"15.08840209","SITE":"AFETR","MEAN_MOTION_DOT":"0.00000470","OBJECT_TYPE":"PAYLOAD","ARG_OF_PERICENTER":"41.5461","APOAPSIS":"541.499","NORAD_CAT_ID":"52498","REF_FRAME":"TEME","PERIAPSIS":"537.990","TIME_SYSTEM":"UTC","COUNTRY_CODE":"US","CLASSIFICATION_TYPE":"U","MEAN_ELEMENT_THEORY":"SGP4","SEMIMAJOR_AXIS":"6917.880","DECAY_DATE":null,"CENTER_NAME":"EARTH","MEAN_MOTION_DDOT":"0.0000000000000","RCS_SIZE":"LARGE","RA_OF_ASC_NODE":"188.2363","BSTAR":"0.00004767500000","GP_ID":"222500185","FILE":"3736460","OBJECT_NAME":"STARLINK-3925","TLE_LINE2":"2 52498  53.2168 188.2363 0002536  41.5461 318.5723 15.08840209 38022","LAUNCH_DATE":"2022-05-06","ECCENTRICITY":"0.00025360","PERIOD":"95.438","MEAN_ANOMALY":"318.5723","EPHEMERIS_TYPE":"0","ELEMENT_SET_NO":"999","OBJECT_ID":"2022-049AZ","TLE_LINE1":"1 52498U 22049AZ  23008.77021551  .00000470  00000-0  47675-4 0  9990","INCLINATION":"53.2168","REV_AT_EPOCH":"3802","EPOCH":"2023-01-08T18:29:06.620064"},{"TIME_SYSTEM":"UTC","PERIAPSIS":"537.104","REF_FRAME":"TEME","COUNTRY_CODE":"US","MEAN_MOTION":"15.08838344","ARG_OF_PERICENTER":"38.4781","MEAN_MOTION_DOT":"0.00002290","OBJECT_TYPE":"PAYLOAD","NORAD_CAT_ID":"52499","APOAPSIS":"542.397","SITE":"AFETR","ELEMENT_SET_NO":"999","OBJECT_ID":"2022-049BA","TLE_LINE1":"1 52499U 22049BA  23008.92386392  .00002290  00000-0  16200-3 0  9996","MEAN_ANOMALY":"321.6483","EPHEMERIS_TYPE":"0","EPOCH":"2023-01-08T22:10:21.842688","REV_AT_EPOCH":"3791","INCLINATION":"53.2154","RA_OF_ASC_NODE":"197.5695","RCS_SIZE":"LARGE","CENTER_NAME":"EARTH","MEAN_MOTION_DDOT":"0.0000000000000","MEAN_ELEMENT_THEORY":"SGP4","CLASSIFICATION_TYPE":"U","SEMIMAJOR_AXIS":"6917.885","DECAY_DATE":null,"PERIOD":"95.438","ECCENTRICITY":"0.00038260","LAUNCH_DATE":"2022-05-06","TLE_LINE2":"2 52499  53.2154 197.5695 0003826  38.4781 321.6483 15.08838344 37914","GP_ID":"222498933","FILE":"3736460","OBJECT_NAME":"STARLINK-3894","BSTAR":"0.00016200000000"},{"MEAN_MOTION":"15.08839906","APOAPSIS":"541.251","NORAD_CAT_ID":"52500","OBJECT_TYPE":"PAYLOAD","MEAN_MOTION_DOT":"0.00000915","ARG_OF_PERICENTER":"38.0569","SITE":"AFETR","PERIAPSIS":"538.240","TIME_SYSTEM":"UTC","REF_FRAME":"TEME","COUNTRY_CODE":"US","CENTER_NAME":"EARTH","MEAN_MOTION_DDOT":"0.0000000000000","RCS_SIZE":"LARGE","RA_OF_ASC_NODE":"187.6639","DECAY_DATE":null,"SEMIMAJOR_AXIS":"6917.881","MEAN_ELEMENT_THEORY":"SGP4","CLASSIFICATION_TYPE":"U","TLE_LINE2":"2 52500  53.2173 187.6639 0002176  38.0569 322.0577 15.08839906 38042","LAUNCH_DATE":"2022-05-06","ECCENTRICITY":"0.00021760","PERIOD":"95.438","BSTAR":"0.00007562300000","GP_ID":"222499183","FILE":"3736460","OBJECT_NAME":"STARLINK-3866","TLE_LINE1":"1 52500U 22049BB  23008.89902423  .00000915  00000-0  75623-4 0  9991","ELEMENT_SET_NO":"999","OBJECT_ID":"2022-049BB","EPHEMERIS_TYPE":"0","MEAN_ANOMALY":"322.0577","EPOCH":"2023-01-08T21:34:35.693472","INCLINATION":"53.2173","REV_AT_EPOCH":"3804"},{"COUNTRY_CODE":"US","TIME_SYSTEM":"UTC","PERIAPSIS":"537.678","REF_FRAME":"TEME","NORAD_CAT_ID":"52501","APOAPSIS":"541.843","ARG_OF_PERICENTER":"35.2292","MEAN_MOTION_DOT":"0.00001011","OBJECT_TYPE":"PAYLOAD","SITE":"AFETR","MEAN_MOTION":"15.08835013","EPOCH":"2023-01-08T22:06:27.599328","REV_AT_EPOCH":"3791","INCLINATION":"53.2163","TLE_LINE1":"1 52501U 22049BC  23008.92115277  .00001011  00000-0  81633-4 0  9995","ELEMENT_SET_NO":"999","OBJECT_ID":"2022-049BC","EPHEMERIS_TYPE":"0","MEAN_ANOMALY":"324.8899","ECCENTRICITY":"0.00030100","PERIOD":"95.438","TLE_LINE2":"2 52501  53.2163 197.5808 0003010  35.2292 324.8899 15.08835013 37917","LAUNCH_DATE":"2022-05-06","GP_ID":"222499435","FILE":"3736460","OBJECT_NAME":"STARLINK-3907","BSTAR":"0.00008163300000","RA_OF_ASC_NODE":"197.5808","RCS_SIZE":"LARGE","MEAN_MOTION_DDOT":"0.0000000000000","CENTER_NAME":"EARTH","DECAY_DATE":null,"SEMIMAJOR_AXIS":"6917.896","CLASSIFICATION_TYPE":"U","MEAN_ELEMENT_THEORY":"SGP4"},{"EPHEMERIS_TYPE":"0","MEAN_ANOMALY":"322.3937","TLE_LINE1":"1 52502U 22049BD  23008.89262203  .00002597  00000-0  18123-3 0  9997","ELEMENT_SET_NO":"999","OBJECT_ID":"2022-049BD","INCLINATION":"53.2162","REV_AT_EPOCH":"3804","EPOCH":"2023-01-08T21:25:22.543392","SEMIMAJOR_AXIS":"6917.873","DECAY_DATE":null,"CLASSIFICATION_TYPE":"U","MEAN_ELEMENT_THEORY":"SGP4","CENTER_NAME":"EARTH","MEAN_MOTION_DDOT":"0.0000000000000","RCS_SIZE":"LARGE","RA_OF_ASC_NODE":"187.6878","BSTAR":"0.00018123000000","OBJECT_NAME":"STARLINK-3912","GP_ID":"222499686","FILE":"3736460","TLE_LINE2":"2 52502  53.2162 187.6878 0002910  37.7259 322.3937 15.08842261 38046","LAUNCH_DATE":"2022-05-06","ECCENTRICITY":"0.00029100","PERIOD":"95.437","REF_FRAME":"TEME","PERIAPSIS":"537.725","TIME_SYSTEM":"UTC","COUNTRY_CODE":"US","MEAN_MOTION":"15.08842261","SITE":"AFETR","APOAPSIS":"541.752","NORAD_CAT_ID":"52502","MEAN_MOTION_DOT":"0.00002597","OBJECT_TYPE":"PAYLOAD","ARG_OF_PERICENTER":"37.7259"},{"MEAN_MOTION_DDOT":"0.0000000000000","CENTER_NAME":"EARTH","RA_OF_ASC_NODE":"187.6820","RCS_SIZE":"LARGE","MEAN_ELEMENT_THEORY":"SGP4","CLASSIFICATION_TYPE":"U","SEMIMAJOR_AXIS":"6917.885","DECAY_DATE":null,"LAUNCH_DATE":"2022-05-06","TLE_LINE2":"2 52503  53.2164 187.6820 0002330  38.3834 321.7324 15.08838630 38046","ECCENTRICITY":"0.00023300","PERIOD":"95.438","BSTAR":"0.00015853000000","GP_ID":"222498434","OBJECT_NAME":"STARLINK-3861","FILE":"3736460","ELEMENT_SET_NO":"999","OBJECT_ID":"2022-049BE","TLE_LINE1":"1 52503U 22049BE  23008.89534660  .00002236  00000-0  15853-3 0  9994","MEAN_ANOMALY":"321.7324","EPHEMERIS_TYPE":"0","EPOCH":"2023-01-08T21:29:17.946240","INCLINATION":"53.2164","REV_AT_EPOCH":"3804","MEAN_MOTION":"15.08838630","MEAN_MOTION_DOT":"0.00002236","OBJECT_TYPE":"PAYLOAD","ARG_OF_PERICENTER":"38.3834","APOAPSIS":"541.361","NORAD_CAT_ID":"52503","SITE":"AFETR","PERIAPSIS":"538.138","TIME_SYSTEM":"UTC","REF_FRAME":"TEME","COUNTRY_CODE":"US"},{"ELEMENT_SET_NO":"999","OBJECT_ID":"2022-051A","TLE_LINE1":"1 52533U 22051A   23008.48691224  .00014895  00000-0  95129-3 0  9993","MEAN_ANOMALY":"293.3907","EPHEMERIS_TYPE":"0","EPOCH":"2023-01-08T11:41:09.217536","REV_AT_EPOCH":"3696","INCLINATION":"53.2137","RCS_SIZE":"LARGE","RA_OF_ASC_NODE":"279.5232","MEAN_MOTION_DDOT":"0.0000000000000","CENTER_NAME":"EARTH","CLASSIFICATION_TYPE":"U","MEAN_ELEMENT_THEORY":"SGP4","SEMIMAJOR_AXIS":"6917.804","DECAY_DATE":null,"ECCENTRICITY":"0.00018860","PERIOD":"95.436","LAUNCH_DATE":"2022-05-13","TLE_LINE2":"2 52533  53.2137 279.5232 0001886  66.7283 293.3907 15.08865004 36960","GP_ID":"222475324","FILE":"3736443","OBJECT_NAME":"STARLINK-3951","BSTAR":"0.00095129000000","TIME_SYSTEM":"UTC","PERIAPSIS":"538.364","REF_FRAME":"TEME","COUNTRY_CODE":"US","MEAN_MOTION":"15.08865004","ARG_OF_PERICENTER":"66.7283","MEAN_MOTION_DOT":"0.00014895","OBJECT_TYPE":"PAYLOAD","NORAD_CAT_ID":"52533","APOAPSIS":"540.974","SITE":"AFWTR"}];
